{"type": "FeatureCollection", "features": [ {"type": "Feature", "properties": {"norad_id": 30048, "name": "FENGYUN 1C DEB", "group": "fengyun-1c-debris", "lat": 29.36346902140312, "lon": -139.45121495418593, "alt_km": 1099.4483590009522, "timestamp": "2025-12-26T19:22:39.180194+00:00", "meta": {"OBJECT_NAME": "FENGYUN 1C DEB", "OBJECT_ID": "1999-025NZ", "EPOCH": "2025-12-26T14:17:01.055040", "MEAN_MOTION": 13.79900496, "ECCENTRICITY": 0.01864687, "INCLINATION": 98.6658, "RA_OF_ASC_NODE": 225.2765, "ARG_OF_PERICENTER": 207.3548, "MEAN_ANOMALY": 208.7983, "EPHEMERIS_TYPE": 0, "CLASSIFICATION_TYPE": "U", "NORAD_CAT_ID": 30048, "ELEMENT_SET_NO": 999, "REV_AT_EPOCH": 95317, "BSTAR": 0.00021079995, "MEAN_MOTION_DOT": 2.1e-06, "MEAN_MOTION_DDOT": 0}, "tle": {"line1": "1 30048U 99025NZ  25360.59515110  .00000210  00000+0  21080-3 0  9999", "line2": "2 30048  98.6658 225.2765 0186468 207.3548 208.7983 13.79900496953170"}}, "geometry": {"type": "Point", "coordinates": [-139.45121495418593, 29.36346902140312]}}, {"type": "Feature", "properties": {"norad_id": 30050, "name": "FENGYUN 1C DEB", "group": "fengyun-1c-debris", "lat": -82.59002545953498, "lon": 24.11213383300963, "alt_km": 923.8251122296006, "timestamp": "2025-12-26T19:22:39.180205+00:00", "meta": {"OBJECT_NAME": "FENGYUN 1C DEB", "OBJECT_ID": "1999-025PB", "EPOCH": "2025-12-25T19:48:12.389760", "MEAN_MOTION": 13.85088382, "ECCENTRICITY": 0.01709486, "INCLINATION": 96.8194, "RA_OF_ASC_NODE": 316.4593, "ARG_OF_PERICENTER": 353.0578, "MEAN_ANOMALY": 66.7155, "EPHEMERIS_TYPE": 0, "CLASSIFICATION_TYPE": "U", "NORAD_CAT_ID": 30050, "ELEMENT_SET_NO": 999, "REV_AT_EPOCH": 95383, "BSTAR": 0.0012822155, "MEAN_MOTION_DOT": 1.6e-05, "MEAN_MOTION_DDOT": 0}, "tle": {"line1": "1 30050U 99025PB  25359.82514340  .00001600  00000+0  12822-2 0  9997", "line2": "2 30050  96.8194 316.4593 0170948 353.0578  66.7155 13.85088382953832"}}, "geometry": {"type": "Point", "coordinates": [24.11213383300963, -82.59002545953498]}}, {"type": "Feature", "properties": {"norad_id": 30052, "name": "FENGYUN 1C DEB", "group": "fengyun-1c-debris", "lat": -53.95420225332486, "lon": 39.02490192894374, "alt_km": 1062.1009015543596, "timestamp": "2025-12-26T19:22:39.180216+00:00", "meta": {"OBJECT_NAME": "FENGYUN 1C DEB", "OBJECT_ID": "1999-025PD", "EPOCH": "2025-12-26T15:01:14.373120", "MEAN_MOTION": 13.72976523, "ECCENTRICITY": 0.02894319, "INCLINATION": 99.2982, "RA_OF_ASC_NODE": 25.8393, "ARG_OF_PERICENTER": 195.8569, "MEAN_ANOMALY": 289.24, "EPHEMERIS_TYPE": 0, "CLASSIFICATION_TYPE": "U", "NORAD_CAT_ID": 30052, "ELEMENT_SET_NO": 999, "REV_AT_EPOCH": 94745, "BSTAR": 0.0004670938, "MEAN_MOTION_DOT": 5.39e-06, "MEAN_MOTION_DDOT": 0}, "tle": {"line1": "1 30052U 99025PD  25360.62586080  .00000539  00000+0  46709-3 0  9991", "line2": "2 30052  99.2982  25.8393 0289431 195.8569 289.2400 13.72976523947450"}}, "geometry": {"type": "Point", "coordinates": [39.02490192894374, -53.95420225332486]}}, {"type": "Feature", "properties": {"norad_id": 30053, "name": "FENGYUN 1C DEB", "group": "fengyun-1c-debris", "lat": 48.97540253692244, "lon": 2.9324197608051485, "alt_km": 1146.479769105813, "timestamp": "2025-12-26T19:22:39.180227+00:00", "meta": {"OBJECT_NAME": "FENGYUN 1C DEB", "OBJECT_ID": "1999-025PE", "EPOCH": "2025-12-26T10:16:55.816320", "MEAN_MOTION": 13.94222835, "ECCENTRICITY": 0.03314801, "INCLINATION": 98.5759, "RA_OF_ASC_NODE": 172.5919, "ARG_OF_PERICENTER": 300.3604, "MEAN_ANOMALY": 89.4834, "EPHEMERIS_TYPE": 0, "CLASSIFICATION_TYPE": "U", "NORAD_CAT_ID": 30053, "ELEMENT_SET_NO": 999, "REV_AT_EPOCH": 95177, "BSTAR": 0.001864725, "MEAN_MOTION_DOT": 3.866e-05, "MEAN_MOTION_DDOT": 0}, "tle": {"line1": "1 30053U 99025PE  25360.42842380  .00003866  00000+0  18647-2 0  9993", "line2": "2 30053  98.5759 172.5919 0331480 300.3604  89.4834 13.94222835951779"}}, "geometry": {"type": "Point", "coordinates": [2.9324197608051485, 48.97540253692244]}}, {"type": "Feature", "properties": {"norad_id": 30054, "name": "FENGYUN 1C DEB", "group": "fengyun-1c-debris", "lat": 78.66020271574338, "lon": -22.733833695785897, "alt_km": 1073.647775854216, "timestamp": "2025-12-26T19:22:39.180237+00:00", "meta": {"OBJECT_NAME": "FENGYUN 1C DEB", "OBJECT_ID": "1999-025PF", "EPOCH": "2025-12-26T14:21:28.527840", "MEAN_MOTION": 13.69880898, "ECCENTRICITY": 0.02752784, "INCLINATION": 99.3701, "RA_OF_ASC_NODE": 32.4823, "ARG_OF_PERICENTER": 329.2014, "MEAN_ANOMALY": 160.6182, "EPHEMERIS_TYPE": 0, "CLASSIFICATION_TYPE": "U", "NORAD_CAT_ID": 30054, "ELEMENT_SET_NO": 999, "REV_AT_EPOCH": 94538, "BSTAR": 0.0004986742, "MEAN_MOTION_DOT": 5.26e-06, "MEAN_MOTION_DDOT": 0}, "tle": {"line1": "1 30054U 99025PF  25360.59824685  .00000526  00000+0  49867-3 0  9999", "line2": "2 30054  99.3701  32.4823 0275278 329.2014 160.6182 13.69880898945380"}}, "geometry": {"type": "Point", "coordinates": [-22.733833695785897, 78.66020271574338]}}, {"type": "Feature", "properties": {"norad_id": 30056, "name": "FENGYUN 1C DEB", "group": "fengyun-1c-debris", "lat": -54.63447151667436, "lon": -7.233338798894343, "alt_km": 885.5882169412107, "timestamp": "2025-12-26T19:22:39.180247+00:00", "meta": {"OBJECT_NAME": "FENGYUN 1C DEB", "OBJECT_ID": "1999-025PH", "EPOCH": "2025-12-26T11:15:40.848192", "MEAN_MOTION": 13.74068607, "ECCENTRICITY": 0.02989109, "INCLINATION": 98.3231, "RA_OF_ASC_NODE": 184.374, "ARG_OF_PERICENTER": 173.7361, "MEAN_ANOMALY": 186.7663, "EPHEMERIS_TYPE": 0, "CLASSIFICATION_TYPE": "U", "NORAD_CAT_ID": 30056, "ELEMENT_SET_NO": 999, "REV_AT_EPOCH": 94164, "BSTAR": 0.0024592955, "MEAN_MOTION_DOT": 3.159e-05, "MEAN_MOTION_DDOT": 0}, "tle": {"line1": "1 30056U 99025PH  25360.46922278  .00003159  00000+0  24593-2 0  9997", "line2": "2 30056  98.3231 184.3740 0298910 173.7361 186.7663 13.74068607941649"}}, "geometry": {"type": "Point", "coordinates": [-7.233338798894343, -54.63447151667436]}}, {"type": "Feature", "properties": {"norad_id": 30057, "name": "FENGYUN 1C DEB", "group": "fengyun-1c-debris", "lat": -45.83999717699318, "lon": -121.0650691038949, "alt_km": 1143.172405526503, "timestamp": "2025-12-26T19:22:39.180257+00:00", "meta": {"OBJECT_NAME": "FENGYUN 1C DEB", "OBJECT_ID": "1999-025PJ", "EPOCH": "2025-12-26T11:18:05.614848", "MEAN_MOTION": 13.57154565, "ECCENTRICITY": 0.02916616, "INCLINATION": 98.8824, "RA_OF_ASC_NODE": 67.8972, "ARG_OF_PERICENTER": 111.1508, "MEAN_ANOMALY": 269.1129, "EPHEMERIS_TYPE": 0, "CLASSIFICATION_TYPE": "U", "NORAD_CAT_ID": 30057, "ELEMENT_SET_NO": 999, "REV_AT_EPOCH": 93422, "BSTAR": 0.0012210051, "MEAN_MOTION_DOT": 1.111e-05, "MEAN_MOTION_DDOT": 0}, "tle": {"line1": "1 30057U 99025PJ  25360.47089832  .00001111  00000+0  12210-2 0  9998", "line2": "2 30057  98.8824  67.8972 0291661 111.1508 269.1129 13.57154565934229"}}, "geometry": {"type": "Point", "coordinates": [-121.0650691038949, -45.83999717699318]}}, {"type": "Feature", "properties": {"norad_id": 30058, "name": "FENGYUN 1C DEB", "group": "fengyun-1c-debris", "lat": -23.792229777823994, "lon": -179.70942837782184, "alt_km": 1062.610134291731, "timestamp": "2025-12-26T19:22:39.180267+00:00", "meta": {"OBJECT_NAME": "FENGYUN 1C DEB", "OBJECT_ID": "1999-025PK", "EPOCH": "2025-12-25T22:58:24.150144", "MEAN_MOTION": 13.48253074, "ECCENTRICITY": 0.0315758, "INCLINATION": 99.6499, "RA_OF_ASC_NODE": 3.7701, "ARG_OF_PERICENTER": 119.5682, "MEAN_ANOMALY": 276.4839, "EPHEMERIS_TYPE": 0, "CLASSIFICATION_TYPE": "U", "NORAD_CAT_ID": 30058, "ELEMENT_SET_NO": 999, "REV_AT_EPOCH": 93026, "BSTAR": 0.00070421, "MEAN_MOTION_DOT": 5.51e-06, "MEAN_MOTION_DDOT": 0}, "tle": {"line1": "1 30058U 99025PK  25359.95722396  .00000551  00000+0  70421-3 0  9995", "line2": "2 30058  99.6499   3.7701 0315758 119.5682 276.4839 13.48253074930269"}}, "geometry": {"type": "Point", "coordinates": [-179.70942837782184, -23.792229777823994]}}, {"type": "Feature", "properties": {"norad_id": 30059, "name": "FENGYUN 1C DEB", "group": "fengyun-1c-debris", "lat": -30.703216916250508, "lon": 169.13140376445247, "alt_km": 952.7235644801385, "timestamp": "2025-12-26T19:22:39.180277+00:00", "meta": {"OBJECT_NAME": "FENGYUN 1C DEB", "OBJECT_ID": "1999-025PL", "EPOCH": "2025-12-26T05:54:17.245152", "MEAN_MOTION": 13.45501388, "ECCENTRICITY": 0.03264114, "INCLINATION": 98.8233, "RA_OF_ASC_NODE": 353.9289, "ARG_OF_PERICENTER": 268.3407, "MEAN_ANOMALY": 108.0047, "EPHEMERIS_TYPE": 0, "CLASSIFICATION_TYPE": "U", "NORAD_CAT_ID": 30059, "ELEMENT_SET_NO": 999, "REV_AT_EPOCH": 92979, "BSTAR": 0.00030317516, "MEAN_MOTION_DOT": 2.09e-06, "MEAN_MOTION_DDOT": 0}, "tle": {"line1": "1 30059U 99025PL  25360.24603293  .00000209  00000+0  30318-3 0  9995", "line2": "2 30059  98.8233 353.9289 0326411 268.3407 108.0047 13.45501388929792"}}, "geometry": {"type": "Point", "coordinates": [169.13140376445247, -30.703216916250508]}}, {"type": "Feature", "properties": {"norad_id": 30060, "name": "FENGYUN 1C DEB", "group": "fengyun-1c-debris", "lat": 6.80040116131734, "lon": -134.6415516495344, "alt_km": 869.8758969090359, "timestamp": "2025-12-26T19:22:39.180288+00:00", "meta": {"OBJECT_NAME": "FENGYUN 1C DEB", "OBJECT_ID": "1999-025PM", "EPOCH": "2025-12-26T14:07:14.900160", "MEAN_MOTION": 13.43812385, "ECCENTRICITY": 0.03461397, "INCLINATION": 99.3149, "RA_OF_ASC_NODE": 226.2768, "ARG_OF_PERICENTER": 37.1435, "MEAN_ANOMALY": 352.7106, "EPHEMERIS_TYPE": 0, "CLASSIFICATION_TYPE": "U", "NORAD_CAT_ID": 30060, "ELEMENT_SET_NO": 999, "REV_AT_EPOCH": 92429, "BSTAR": 0.0025910991, "MEAN_MOTION_DOT": 2.102e-05, "MEAN_MOTION_DDOT": 0}, "tle": {"line1": "1 30060U 99025PM  25360.58836690  .00002102  00000+0  25911-2 0  9999", "line2": "2 30060  99.3149 226.2768 0346139  37.1435 352.7106 13.43812385924296"}}, "geometry": {"type": "Point", "coordinates": [-134.6415516495344, 6.80040116131734]}}]}